{
    "links": {
        "self": "http://www.neowsapp.com/rest/v1/neo/3781456?api_key=iIulBulltgU6a56xZRHN4H3l9WmuAYTsLGpBGhQ2"
    },
    "id": "3781456",
    "neo_reference_id": "3781456",
    "name": "(2017 RQ15)",
    "designation": "2017 RQ15",
    "nasa_jpl_url": "http://ssd.jpl.nasa.gov/sbdb.cgi?sstr=3781456",
    "absolute_magnitude_h": 25.8,
    "estimated_diameter": {
        "kilometers": {
            "estimated_diameter_min": 0.0183888672,
            "estimated_diameter_max": 0.0411187571
        },
        "meters": {
            "estimated_diameter_min": 18.388867207,
            "estimated_diameter_max": 41.1187571041
        },
        "miles": {
            "estimated_diameter_min": 0.0114263088,
            "estimated_diameter_max": 0.0255500032
        },
        "feet": {
            "estimated_diameter_min": 60.3309310875,
            "estimated_diameter_max": 134.9040630575
        }
    },
    "is_potentially_hazardous_asteroid": false,
    "close_approach_data": [
        {
            "close_approach_date": "2017-09-22",
            "close_approach_date_full": "2017-Sep-22 18:34",
            "epoch_date_close_approach": 1506105240000,
            "relative_velocity": {
                "kilometers_per_second": "20.392416146",
                "kilometers_per_hour": "73412.698125596",
                "miles_per_hour": "45615.7956769849"
            },
            "miss_distance": {
                "astronomical": "0.0249364201",
                "lunar": "9.7002674189",
                "kilometers": "3730435.332385187",
                "miles": "2317985.0291501006"
            },
            "orbiting_body": "Earth"
        }
    ],
    "orbital_data": {
        "orbit_id": "4",
        "orbit_determination_date": "2017-09-22 06:50:37",
        "first_observation_date": "2017-09-14",
        "last_observation_date": "2017-09-22",
        "data_arc_in_days": 8,
        "observations_used": 23,
        "orbit_uncertainty": "9",
        "minimum_orbit_intersection": ".0179158",
        "jupiter_tisserand_invariant": "3.947",
        "epoch_osculation": "2458012.5",
        "eccentricity": ".6733941412244687",
        "semi_major_axis": "1.666989330987056",
        "inclination": "9.290601138222716",
        "ascending_node_longitude": "352.7010686753537",
        "orbital_period": "786.1359504890521",
        "perihelion_distance": ".5444484820166758",
        "perihelion_argument": "104.3704753752654",
        "aphelion_distance": "2.789530179957437",
        "perihelion_time": "2458069.168050239784",
        "mean_anomaly": "334.0496563302681",
        "mean_motion": ".457936060265461",
        "equinox": "J2000",
        "orbit_class": {
            "orbit_class_type": "APO",
            "orbit_class_description": "Near-Earth asteroid orbits which cross the Earth’s orbit similar to that of 1862 Apollo",
            "orbit_class_range": "a (semi-major axis) > 1.0 AU; q (perihelion) < 1.017 AU"
        }
    },
    "is_sentry_object": false
}